STARLINK-32249          
1 60444U 24144V   26068.68424351 -.00002050  00000+0 -57154-4 0  9992
2 60444  53.1603 216.7732 0001284  52.5165 307.5953 15.30174225 89352
TEVEL2-4                
1 63213U 25052D   26068.69417973  .00020990  00000+0  70363-3 0  9998
2 63213  97.4009 325.1237 0004733  95.3468 264.8313 15.30925813 54879
